[{"OBJECT_ID":"2012-069B","OBJECT_NAME":"BLOCK DM-SL R/B","NORAD_CAT_ID":"39021","OBJECT_TYPE":"ROCKET BODY","PERIOD":"648.940","INCLINATION":"0.6598","APOGEE":"35533.889","PERIGEE":"1368.334","ECCENTRICITY":"0.6880103","MEAN_MOTION":"2.21900068","TLE_LINE1":"1 39021U 12069B   16238.86503783 -.00000142 +00000-0 +00000-0 0  9991","TLE_LINE2":"2 39021 000.6598 054.6292 6880103 055.1264 332.3339 02.21900068030223","LAUNCH_DATE":"2012-12-03","LAUNCH_SITE":"SEA LAUNCH","OWNER":"SEA LAUNCH DEMO","ORBIT_TYPE":"Highly Elliptical Orbit","OPERATIONAL_STATUS":"N/A, derelict rocket body","satInfo":{"lng":174.55349380240594,"lat":-2.8284681105821186,"elevation":-12.323891215861117,"azimuth":140.44650619759403,"range":38475.593933023985,"height":31256.647678871712,"velocity":2.2647804588816824},"x":22,"y":245,"dx":-2.254555541826481,"dy":0.2149647314138449},{"OBJECT_ID":"2013-031A","OBJECT_NAME":"O3B FM5","NORAD_CAT_ID":"39188","OBJECT_TYPE":"PAYLOAD","PERIOD":"287.933","INCLINATION":"0.0365","APOGEE":"8070.817","PERIGEE":"8060.966","ECCENTRICITY":"0.000341","MEAN_MOTION":"5.00115521","TLE_LINE1":"1 39188U 13031A   16238.66574074 -.00000028 +00000-0 +00000-0 0  9997","TLE_LINE2":"2 39188 000.0365 336.9222 0003410 334.9263 048.1212 05.00115521057909","LAUNCH_DATE":"2013-06-25","LAUNCH_SITE":"FRENCH GUIANA","OWNER":"O3B NETWORKS","ORBIT_TYPE":"Unclassified","OPERATIONAL_STATUS":"Operational","satInfo":{"lng":-44.97399959578332,"lat":0.11939770190159901,"elevation":-23.65092481961963,"azimuth":359.97399959578337,"range":15771.892365084263,"height":8069.050753943731,"velocity":5.252615123599878},"x":-43,"y":-45,"dx":3.7158448488229032,"dy":-3.7124739320494173},{"OBJECT_ID":"2013-031C","OBJECT_NAME":"O3B FM2","NORAD_CAT_ID":"39190","OBJECT_TYPE":"PAYLOAD","PERIOD":"287.933","INCLINATION":"0.0395","APOGEE":"8076.968","PERIGEE":"8054.811","ECCENTRICITY":"0.000767","MEAN_MOTION":"5.00115619","TLE_LINE1":"1 39190U 13031C   16238.53259924 -.00000028 +00000-0 +00000-0 0  9990","TLE_LINE2":"2 39190 000.0395 026.4037 0007670 130.7783 202.8510 05.00115619057875","LAUNCH_DATE":"2013-06-25","LAUNCH_SITE":"FRENCH GUIANA","OWNER":"O3B NETWORKS","ORBIT_TYPE":"Unclassified","OPERATIONAL_STATUS":"Operational","satInfo":{"lng":-164.77391136348305,"lat":-0.18461860838005276,"elevation":-23.90137286292626,"azimuth":119.77391136348305,"range":15804.839696047147,"height":8071.421563120601,"velocity":5.251752922504069},"x":-16,"y":61,"dx":-5.067400698261694,"dy":-1.3792602808342316},{"OBJECT_ID":"2013-031E","OBJECT_NAME":"FREGAT R/B","NORAD_CAT_ID":"39192","OBJECT_TYPE":"ROCKET BODY","PERIOD":"276.399","INCLINATION":"0.0987","APOGEE":"7692.277","PERIGEE":"7662.786","ECCENTRICITY":"0.0010491","MEAN_MOTION":"5.20985432","TLE_LINE1":"1 39192U 13031E   16239.46847842 -.00000027  00000-0  00000+0 0  9995","TLE_LINE2":"2 39192   0.0987 123.1723 0010491   7.9934 228.9234  5.20985432 60336","LAUNCH_DATE":"2013-06-25","LAUNCH_SITE":"FRENCH GUIANA","OWNER":"COMMONWEALTH OF INDEPENDENT STATES","ORBIT_TYPE":"Unclassified","OPERATIONAL_STATUS":"N/A, derelict rocket body","satInfo":{"lng":2.750321931229164,"lat":0.09611236507700233,"elevation":-24.2816621121021,"azimuth":312.24967806877083,"range":15401.980582997374,"height":7661.326105782082,"velocity":5.332024544590092},"x":2,"y":-60,"dx":5.325882675583595,"dy":0.2558504837394261},{"OBJECT_ID":"2013-062B","OBJECT_NAME":"BREEZE-M R/B","NORAD_CAT_ID":"39376","OBJECT_TYPE":"ROCKET BODY","PERIOD":"1381.831","INCLINATION":"1.9658","APOGEE":"35755.831","PERIGEE":"33679.410","ECCENTRICITY":"0.0252632","MEAN_MOTION":"1.04209498","TLE_LINE1":"1 39376U 13062B   16238.12289512 -.00000252 +00000-0 +00000-0 0  9990","TLE_LINE2":"2 39376 001.9658 080.4011 0252632 017.4532 343.7859 01.04209498010608","LAUNCH_DATE":"2013-11-11","LAUNCH_SITE":"TYURATAM MISSILE AND SPACE COMPLEX","OWNER":"COMMONWEALTH OF INDEPENDENT STATES","ORBIT_TYPE":"Unclassified","OPERATIONAL_STATUS":"N/A, derelict rocket body","satInfo":{"lng":177.8467885671862,"lat":-3.764258641746855,"elevation":-12.246008350545488,"azimuth":137.15321143281378,"range":42988.82866450023,"height":35723.2560027917,"velocity":3.03914114452256},"x":10,"y":281,"dx":-3.036995301984301,"dy":0.11418595384364204},{"OBJECT_ID":"2013-077B","OBJECT_NAME":"BREEZE-M R/B","NORAD_CAT_ID":"39488","OBJECT_TYPE":"ROCKET BODY","PERIOD":"1607.749","INCLINATION":"1.6662","APOGEE":"41361.682","PERIGEE":"36804.070","ECCENTRICITY":"0.0501266","MEAN_MOTION":"0.89566194","TLE_LINE1":"1 39488U 13077B   16238.24383049 -.00000205 +00000-0 +00000-0 0  9991","TLE_LINE2":"2 39488 001.6662 068.0956 0501266 117.5482 248.2965 00.89566194008582","LAUNCH_DATE":"2013-12-26","LAUNCH_SITE":"TYURATAM MISSILE AND SPACE COMPLEX","OWNER":"COMMONWEALTH OF INDEPENDENT STATES","ORBIT_TYPE":"Unclassified","OPERATIONAL_STATUS":"N/A, derelict rocket body","satInfo":{"lng":-77.74616718141937,"lat":-0.2485055211995861,"elevation":-7.864652471993124,"azimuth":32.74616718141935,"range":47963.499986202,"height":41134.66808575923,"velocity":2.8303528752445812},"x":-301,"y":-69,"dx":0.600722709421313,"dy":-2.765868692615538},{"OBJECT_ID":"2014-010B","OBJECT_NAME":"EXPRESS AT2","NORAD_CAT_ID":"39613","OBJECT_TYPE":"PAYLOAD","PERIOD":"1436.111","INCLINATION":"0.0444","APOGEE":"35790.045","PERIGEE":"35783.737","ECCENTRICITY":"7.48e-05","MEAN_MOTION":"1.00270734","TLE_LINE1":"1 39613U 14010B   16238.85035899 -.00000309 +00000-0 +00000-0 0  9998","TLE_LINE2":"2 39613 000.0444 285.1424 0000748 347.2377 148.1129 01.00270734008967","LAUNCH_DATE":"2014-03-15","LAUNCH_SITE":"TYURATAM MISSILE AND SPACE COMPLEX","OWNER":"COMMONWEALTH OF INDEPENDENT STATES","ORBIT_TYPE":"Geosynchronous","OPERATIONAL_STATUS":"Operational","satInfo":{"lng":124.66182028679077,"lat":-0.5798459607265164,"elevation":-9.143900675878603,"azimuth":190.3381797132092,"range":42684.514704798894,"height":35766.113144809045,"velocity":3.075533861075489},"x":219,"y":160,"dx":-1.749153145353029,"dy":2.5296979670947897},{"OBJECT_ID":"2014-010C","OBJECT_NAME":"BREEZE-M R/B","NORAD_CAT_ID":"39614","OBJECT_TYPE":"ROCKET BODY","PERIOD":"1589.752","INCLINATION":"1.8952","APOGEE":"41848.963","PERIGEE":"35637.003","ECCENTRICITY":"0.0688365","MEAN_MOTION":"0.90580138","TLE_LINE1":"1 39614U 14010C   16237.60698173 -.00000164 +00000-0 +00000-0 0  9990","TLE_LINE2":"2 39614 001.8952 079.0229 0688365 341.6705 016.4012 00.90580138008041","LAUNCH_DATE":"2014-03-15","LAUNCH_SITE":"TYURATAM MISSILE AND SPACE COMPLEX","OWNER":"COMMONWEALTH OF INDEPENDENT STATES","ORBIT_TYPE":"Unclassified","OPERATIONAL_STATUS":"N/A, derelict rocket body","satInfo":{"lng":27.308019492311733,"lat":4.445078805842617,"elevation":-3.7848949553635403,"azimuth":287.69198050768824,"range":44299.30735348158,"height":37957.7802791039,"velocity":3.0244231040587244},"x":130,"y":-266,"dx":2.687360308145112,"dy":1.387526463376616},{"OBJECT_ID":"2014-030B","OBJECT_NAME":"BLOCK DM-SL R/B","NORAD_CAT_ID":"39774","OBJECT_TYPE":"ROCKET BODY","PERIOD":"629.023","INCLINATION":"0.1738","APOGEE":"35478.273","PERIGEE":"402.580","ECCENTRICITY":"0.7211712","MEAN_MOTION":"2.28926429","TLE_LINE1":"1 39774U 14030B   16238.79611352  .00000061  00000-0  55544-3 0  9995","TLE_LINE2":"2 39774   0.1738 229.3556 7211712 320.2904 139.8343  2.28926429 18817","LAUNCH_DATE":"2014-05-26","LAUNCH_SITE":"SEA LAUNCH","OWNER":"SEA LAUNCH DEMO","ORBIT_TYPE":"Highly Elliptical Orbit","OPERATIONAL_STATUS":"N/A, derelict rocket body","satInfo":{"lng":80.78016427438655,"lat":0.6295618743933193,"elevation":-30.982571243843022,"azimuth":234.21983572561345,"range":12128.227591836909,"height":4020.30788578814,"velocity":7.761514665336359},"x":29,"y":-5,"dx":1.243572569822059,"dy":7.6612425339377905},{"OBJECT_ID":"2014-038B","OBJECT_NAME":"O3B FM7","NORAD_CAT_ID":"40080","OBJECT_TYPE":"PAYLOAD","PERIOD":"287.932","INCLINATION":"0.0379","APOGEE":"8068.617","PERIGEE":"8063.114","ECCENTRICITY":"0.0001905","MEAN_MOTION":"5.00116874","TLE_LINE1":"1 40080U 14038B   16238.42297373 -.00000028 +00000-0 +00000-0 0  9996","TLE_LINE2":"2 40080 000.0379 009.7397 0001905 144.0437 206.2251 05.00116874038759","LAUNCH_DATE":"2014-07-10","LAUNCH_SITE":"FRENCH GUIANA","OWNER":"O3B NETWORKS","ORBIT_TYPE":"Unclassified","OPERATIONAL_STATUS":"Operational","satInfo":{"lng":37.92686724005889,"lat":0.08875927389124907,"elevation":-23.684387576183592,"azimuth":277.07313275994113,"range":15770.086054473457,"height":8063.684870366658,"velocity":5.2545616438792155},"x":37,"y":-50,"dx":4.1447769246359085,"dy":3.2297433821175865},{"OBJECT_ID":"2014-038C","OBJECT_NAME":"O3B FM6","NORAD_CAT_ID":"40081","OBJECT_TYPE":"PAYLOAD","PERIOD":"287.933","INCLINATION":"0.0369","APOGEE":"8068.016","PERIGEE":"8063.772","ECCENTRICITY":"0.0001469","MEAN_MOTION":"5.00115387","TLE_LINE1":"1 40081U 14038C   16238.44499756 -.00000028 +00000-0 +00000-0 0  9998","TLE_LINE2":"2 40081 000.0369 008.4951 0001469 146.0425 205.4686 05.00115387038734","LAUNCH_DATE":"2014-07-10","LAUNCH_SITE":"FRENCH GUIANA","OWNER":"O3B NETWORKS","ORBIT_TYPE":"Unclassified","OPERATIONAL_STATUS":"Operational","satInfo":{"lng":-7.918182792770305,"lat":0.062055146006808296,"elevation":-23.708387945307816,"azimuth":322.9181827927704,"range":15771.735987412027,"height":8062.5318927050885,"velocity":5.254986205673083},"x":-9,"y":-63,"dx":5.204884091963918,"dy":-0.723920997785894}]